STARLINK-32203          
1 60331U 24136C   26068.28416226 -.00000738  00000+0 -12805-4 0  9991
2 60331  53.1598  67.5263 0001281  88.7763 271.3385 15.30197337 89742
TRANSPORTER-11 OBJECT A 
1 60468U 24149A   26068.74646182  .00010774  00000+0  36054-3 0  9993
2 60468  97.3780 149.0949 0003110 191.0010 169.1164 15.31141332 86830
