[{"OBJECT_NAME":"STARLINK-32203","OBJECT_ID":"2024-136C","EPOCH":"2026-03-09T06:49:11.619264","MEAN_MOTION":15.30197337,"ECCENTRICITY":0.00012819,"INCLINATION":53.1598,"RA_OF_ASC_NODE":67.5263,"ARG_OF_PERICENTER":88.7763,"MEAN_ANOMALY":271.3385,"EPHEMERIS_TYPE":0,"CLASSIFICATION_TYPE":"U","NORAD_CAT_ID":60331,"ELEMENT_SET_NO":999,"REV_AT_EPOCH":8974,"BSTAR":-1.2804998e-5,"MEAN_MOTION_DOT":-7.38e-6,"MEAN_MOTION_DDOT":0},{"OBJECT_NAME":"TRANSPORTER-11 OBJECT A","OBJECT_ID":"2024-149A","EPOCH":"2026-03-09T17:54:54.302112","MEAN_MOTION":15.31141332,"ECCENTRICITY":0.00031096,"INCLINATION":97.378,"RA_OF_ASC_NODE":149.0949,"ARG_OF_PERICENTER":191.001,"MEAN_ANOMALY":169.1164,"EPHEMERIS_TYPE":0,"CLASSIFICATION_TYPE":"U","NORAD_CAT_ID":60468,"ELEMENT_SET_NO":999,"REV_AT_EPOCH":8683,"BSTAR":0.00036053677,"MEAN_MOTION_DOT":0.00010774,"MEAN_MOTION_DDOT":0}]
